OBJECT_NAME,OBJECT_ID,EPOCH,MEAN_MOTION,ECCENTRICITY,INCLINATION,RA_OF_ASC_NODE,ARG_OF_PERICENTER,MEAN_ANOMALY,EPHEMERIS_TYPE,CLASSIFICATION_TYPE,NORAD_CAT_ID,ELEMENT_SET_NO,REV_AT_EPOCH,BSTAR,MEAN_MOTION_DOT,MEAN_MOTION_DDOT
TIANMU-1 17,2024-004C,2026-06-19T15:06:18.311904,15.26767878,.00052806,97.4646,356.5398,6.0682,354.0619,0,U,58702,999,13614,.16667457E-3,.4312E-4,0
TIANMU-1 18,2024-004D,2026-06-19T14:31:42.944160,15.27025059,.00037924,97.4663,356.7728,7.5685,352.5611,0,U,58703,999,13614,.16818118E-3,.4385E-4,0
STARLINK-11072 [DTC],2024-002A,2026-06-19T02:11:07.507968,15.69683985,.00014358,53.1597,134.1415,68.0637,292.0534,0,U,58705,999,14236,-.25884035E-4,-.372E-4,0
STARLINK-11075 [DTC],2024-002B,2026-06-19T04:24:59.985504,15.69726201,.00018283,53.1599,133.2960,40.7842,319.3312,0,U,58706,999,14238,-.1627701E-4,-.2563E-4,0
STARLINK-11077 [DTC],2024-002C,2026-06-19T03:56:54.539232,15.69706481,.00012602,53.1595,133.8819,89.3745,270.7418,0,U,58707,999,14237,.3341904E-5,-.184E-5,0
STARLINK-11079 [DTC],2024-002D,2026-06-19T14:17:29.656032,15.69706997,.00006433,53.1602,131.5957,100.4928,259.6162,0,U,58708,999,14244,.149493E-5,-.407E-5,0
STARLINK-11076 [DTC],2024-002E,2026-06-19T14:10:25.899456,15.69716949,.00009368,53.1588,131.5704,104.6120,255.5002,0,U,58709,999,14244,.14828276E-4,.1209E-4,0
STARLINK-11078 [DTC],2024-002F,2026-06-19T04:53:16.940256,15.69700793,.00013251,53.1601,133.4219,92.5175,267.5994,0,U,58710,999,14238,.2824071E-5,-.247E-5,0
STARLINK-31031,2024-002G,2026-06-19T13:12:40.631328,15.34390632,.00011837,53.1597,115.8926,90.4975,269.6163,0,U,58711,999,13762,.20228374E-3,.6462E-4,0
STARLINK-31029,2024-002H,2026-06-19T13:17:24.236736,15.30194352,.00015201,53.1606,116.6142,101.1402,258.9769,0,U,58712,999,13761,-.10701319E-4,-.676E-5,0
STARLINK-30973,2024-002J,2026-06-19T02:28:09.350400,15.30189461,.00015374,53.1594,118.7766,86.8146,273.3031,0,U,58713,999,13754,-.28353197E-4,-.1199E-4,0
STARLINK-31100,2024-002K,2026-06-19T13:31:04.938240,15.30189068,.00015516,53.1603,116.6693,94.5361,265.5818,0,U,58714,999,13761,.240482E-5,-.288E-5,0
STARLINK-31102,2024-002L,2026-06-19T14:04:06.135168,15.34439929,.00015799,53.1614,116.1041,83.0674,277.0509,0,U,58715,999,13762,.18382643E-3,.5847E-4,0
STARLINK-31098,2024-002M,2026-06-19T13:34:06.179520,15.30196177,.0001518,53.1600,116.6835,95.8971,264.2202,0,U,58716,999,13761,.26658485E-4,.43E-5,0
STARLINK-31093,2024-002N,2026-06-19T02:46:23.489760,15.30180503,.00015789,53.1612,118.8640,98.8328,261.2852,0,U,58717,999,13754,-.3358589E-4,-.1353E-4,0
STARLINK-31097,2024-002P,2026-06-19T02:41:48.038784,15.30200864,.000093,53.1592,118.8309,96.8356,263.2750,0,U,58718,999,13754,.33950027E-4,.647E-5,0
STARLINK-31051,2024-002Q,2026-06-19T02:49:26.662080,15.30048496,.00024156,53.1598,118.8634,127.6702,232.4518,0,U,58719,999,13754,.83401164E-3,.24308E-3,0
STARLINK-31027,2024-002R,2026-06-19T11:52:51.462912,15.71635733,.00060001,53.1422,90.2874,357.1328,2.9655,0,U,58720,999,13797,.65313172E-3,.86124E-3,0
STARLINK-30972,2024-002S,2026-06-19T13:28:01.606080,15.30195653,.00014824,53.1599,116.6548,96.9708,263.1462,0,U,58721,999,13761,.9428692E-5,-.8E-6,0
STARLINK-31040,2024-002T,2026-06-19T13:42:57.835872,15.34388324,.0001369,53.1602,116.0079,88.6800,271.4359,0,U,58722,999,13762,.10962732E-4,-.6E-7,0
STARLINK-31033,2024-002U,2026-06-19T04:14:21.913728,15.30180471,.00012548,53.1605,118.5171,83.6629,276.4515,0,U,58723,999,13755,-.86010726E-4,-.2904E-4,0
STARLINK-30893,2024-002V,2026-06-19T13:27:49.213728,15.34377718,.00014024,53.1597,115.9516,96.9004,263.2158,0,U,58724,999,13761,.79061805E-4,.2294E-4,0
STARLINK-30856,2024-002W,2026-06-19T04:08:17.099232,15.30186757,.00014314,53.1602,118.4954,92.3608,267.7556,0,U,58725,999,13755,-.7623833E-5,-.585E-5,0
UNICORN-2L,2023-185R,2026-06-19T10:28:51.679200,15.21281900,.00113866,97.5388,244.2989,307.3147,52.7050,0,U,58727,999,13513,.30467477E-3,.6753E-4,0
STARLINK-31115,2024-005B,2026-06-19T14:13:37.670304,15.27575853,.00011112,43.0041,4.6597,275.8975,84.1750,0,U,58729,999,13601,.5609246E-5,-.108E-5,0
STARLINK-31180,2024-005E,2026-06-19T13:25:30.921888,15.27578880,.00013911,43.0032,4.4296,258.7545,101.3151,0,U,58732,999,13601,.29803124E-4,.558E-5,0
STARLINK-31164,2024-005F,2026-06-19T12:50:21.242976,15.27585118,.00014875,43.0036,4.2384,258.0102,102.0583,0,U,58733,999,13601,.80442558E-4,.1952E-4,0
STARLINK-31152,2024-005G,2026-06-19T14:30:03.807936,15.27601617,.00018353,43.0054,3.8976,269.9449,90.1193,0,U,58734,999,13603,.84334003E-4,.206E-4,0
STARLINK-31157,2024-005H,2026-06-19T14:35:36.708864,15.27580234,.0002081,43.0054,3.9269,279.8283,80.2334,0,U,58735,999,13603,.49381573E-4,.1097E-4,0
STARLINK-31076,2024-005J,2026-06-19T13:07:00.883200,15.27576269,.00011417,43.0030,4.3218,267.7673,92.3048,0,U,58736,999,13606,.6065949E-5,-.95E-6,0
STARLINK-31101,2024-005K,2026-06-19T13:21:48.907584,15.27568104,.00008902,43.0026,4.3994,300.6633,59.4131,0,U,58737,999,13601,.25790813E-3,.6839E-4,0
STARLINK-31108,2024-005L,2026-06-19T14:46:42.998016,15.27581346,.00016785,43.0044,3.9811,265.5182,94.5478,0,U,58738,999,13602,.3902987E-4,.812E-5,0
STARLINK-31042,2024-005M,2026-06-19T13:27:21.928608,15.27578953,.00012496,43.0020,4.4200,277.4227,82.6483,0,U,58739,999,13602,.23670938E-4,.389E-5,0
STARLINK-31159,2024-005N,2026-06-19T14:22:41.407968,15.27543959,.00014415,43.0055,3.8563,280.8871,79.1818,0,U,58740,999,13612,.11857184E-3,.2998E-4,0
STARLINK-31148,2024-005P,2026-06-19T14:33:46.367424,15.27573352,.00017672,43.0042,3.9285,279.8000,80.2652,0,U,58741,999,13603,.45164891E-4,.98E-5,0
STARLINK-31151,2024-005Q,2026-06-19T14:44:52.303200,15.27575560,.00015315,43.0041,3.9863,266.1930,93.8747,0,U,58742,999,13612,.63284729E-4,.1479E-4,0
STARLINK-31156,2024-005R,2026-06-19T13:16:15.890880,15.27575388,.00021677,43.0028,4.3845,286.6091,73.4522,0,U,58743,999,13607,-.7996668E-5,-.483E-5,0
STARLINK-31167,2024-005S,2026-06-19T13:29:28.349952,15.27575785,.00012706,43.0004,218.9854,275.5718,84.4989,0,U,58744,999,13778,.54526873E-4,.1238E-4,0
STARLINK-31176,2024-005T,2026-06-19T05:45:33.609312,15.27709518,.00030365,43.0208,6.3361,301.3881,58.6674,0,U,58745,999,13601,.14912193E-2,.41168E-3,0
STARLINK-31181,2024-005U,2026-06-19T04:18:53.013600,15.27578170,.00015658,43.0028,214.3611,277.9194,82.1480,0,U,58746,999,13780,.12524633E-4,.82E-6,0
STARLINK-31183,2024-005V,2026-06-19T05:56:56.539968,15.27578194,.0001493,43.0033,6.3903,270.0635,90.0045,0,U,58747,999,13607,-.53515975E-4,-.1734E-4,0
STARLINK-31165,2024-005W,2026-06-19T05:51:21.179232,15.27604453,.00006208,43.0045,6.3595,217.2467,142.8342,0,U,58748,999,13597,.18154033E-3,.4741E-4,0
STARLINK-31160,2024-005X,2026-06-19T14:02:30.399648,15.27578615,.00017945,43.0057,4.5491,265.2200,94.8447,0,U,58749,999,13602,.2601742E-5,-.191E-5,0
STARLINK-31179,2024-005Y,2026-06-19T13:51:25.521408,15.27574282,.00012576,43.0055,4.5576,260.9007,99.1703,0,U,58750,999,13602,.631474E-6,-.245E-5,0
EINSTEIN PROBE,2024-007A,2026-06-19T11:50:15.957600,15.01898478,.00094553,28.9972,198.4695,237.1716,122.7972,0,U,58753,999,13391,.11730423E-3,.1724E-4,0
NANOFF B,2023-185S,2026-06-19T15:18:06.676128,15.12295494,.00108414,97.5259,238.0760,299.9795,60.0359,0,U,58755,999,13424,.13676099E-3,.2305E-4,0
YUNYAO-1 18,2024-009A,2026-06-19T09:37:29.944128,15.23403985,.00050872,50.0022,143.3357,302.4244,57.6218,0,U,58758,999,13518,.3468066E-3,.8056E-4,0
YUNYAO-1 19,2024-009B,2026-06-19T13:53:08.263968,15.17984670,.00054412,49.9832,155.7856,301.9910,58.0513,0,U,58759,999,13503,.26726946E-3,.52E-4,0
YUNYAO-1 20,2024-009C,2026-06-19T12:17:37.032288,15.18160812,.00042464,49.9776,154.1846,309.8293,50.2285,0,U,58760,999,13504,.25809474E-3,.5037E-4,0
STARLINK-31127,2024-011A,2026-06-19T12:58:22.049472,15.30194623,.00009431,53.1603,260.6264,82.6788,277.4320,0,U,58765,999,13586,.393713E-5,-.242E-5,0
STARLINK-31114,2024-011B,2026-06-19T11:37:13.290240,15.30208992,.00015023,53.1608,258.8767,103.2248,256.8920,0,U,58766,999,13588,.80465473E-4,.2025E-4,0
STARLINK-31140,2024-011C,2026-06-19T12:18:16.426368,15.34391878,.00011018,53.1591,260.4490,106.5565,253.5558,0,U,58767,999,13586,.65419559E-4,.1834E-4,0
STARLINK-31146,2024-011E,2026-06-19T14:00:01.999872,15.34384156,.000131,53.1594,260.1921,81.7191,274.0412,0,U,58769,999,586,.41224745E-3,.1357E-3,0
STARLINK-31143,2024-011F,2026-06-18T05:19:04.048032,15.30193975,.0001501,53.1625,266.6183,110.8787,249.2375,0,U,58770,999,13566,.55953E-4,.1298E-4,0
STARLINK-31135,2024-011G,2026-06-19T12:56:05.375904,15.30195679,.00015335,53.1626,258.5079,106.7034,253.4135,0,U,58771,999,13589,-.4884662E-5,-.504E-5,0
STARLINK-31136,2024-011H,2026-06-19T12:09:11.422944,15.34387933,.00010987,53.1614,260.4086,88.9759,271.1370,0,U,58772,999,13585,-.72576E-5,-.621E-5,0
STARLINK-31073,2024-011J,2026-06-19T13:02:55.526208,15.30197821,.00012718,53.1603,260.6461,98.6130,261.5015,0,U,58773,999,13586,-.14592332E-4,-.791E-5,0
STARLINK-31122,2024-011K,2026-06-19T13:12:02.899584,15.30192180,.00012978,53.1616,260.6752,75.4229,284.6916,0,U,58774,999,13586,-.23746483E-4,-.1062E-4,0
STARLINK-31123,2024-011L,2026-06-19T13:00:35.462304,15.34408069,.00017137,53.1571,259.9206,18.4679,341.6386,0,U,58775,999,912,.11346761E-2,.38166E-3,0
STARLINK-31117,2024-011M,2026-06-18T16:59:58.960320,15.30202946,.00015432,53.1612,264.6667,56.2928,303.8220,0,U,58776,999,13573,-.24570048E-4,-.1087E-4,0
STARLINK-31132,2024-011N,2026-06-19T07:08:58.282656,15.31708751,.00012952,53.1606,171.0214,99.9473,260.1675,0,U,58777,999,13712,.26554181E-4,.459E-5,0
STARLINK-31120,2024-011P,2026-06-19T12:24:19.796256,15.34394966,.00014209,53.1594,260.4671,90.3077,269.8088,0,U,58778,999,13586,.93528023E-4,.2784E-4,0
STARLINK-31142,2024-011Q,2026-06-19T11:45:35.482464,15.30191471,.00010867,53.1600,261.0094,91.7737,268.3388,0,U,58779,999,13585,-.34397969E-4,-.1377E-4,0
STARLINK-31099,2024-011S,2026-06-19T13:15:04.877856,15.30197749,.00008292,53.1596,260.6857,91.8880,268.2216,0,U,58781,999,13586,-.42979428E-4,-.1631E-4,0
